GLOBALSTAR M023         
1 25621U 99004A   24262.19227939  .00000063  00000+0  92565-3 0  9994
2 25621  52.0093 161.6598 0009330 246.5943 273.3375 12.62472995181378
GLOBALSTAR M040         
1 25622U 99004B   24262.22131476 -.00000029  00000+0  42000-3 0  9991
2 25622  51.9901 165.3196 0000969 112.4268  55.0480 12.61983754180910
GLOBALSTAR M036         
1 25623U 99004C   24262.22220326 -.00000098  00000+0 -22547-3 0  9996
2 25623  51.9945 237.1496 0010562 251.2452 231.7824 11.86582610146691
GLOBALSTAR M038         
1 25624U 99004D   24262.83248247 -.00000047  00000+0  39369-3 0  9999
2 25624  51.9952 133.0315 0001306 184.3415 255.6844 12.32508114168875
GLOBALSTAR M022         
1 25649U 99012A   24262.53201622 -.00000060  00000+0  32436-3 0  9991
2 25649  52.0052 309.3818 0002261 359.3576 144.9955 12.02488134143696
GLOBALSTAR M041         
1 25650U 99012B   24262.25255800 -.00000101  00000+0 -20490-3 0  9993
2 25650  52.0009 183.2976 0002552 136.4605 223.6433 11.96660102145725
GLOBALSTAR M046         
1 25651U 99012C   24262.45440866 -.00000048  00000+0  44777-3 0  9997
2 25651  52.0045 269.6449 0002430  69.4276  77.9499 12.09397841150780
GLOBALSTAR M037         
1 25652U 99012D   24262.55435446 -.00000026  00000+0  43161-3 0  9999
2 25652  51.9999 291.2760 0001639 308.6944 211.8563 12.62418525176965
